{
  "norad_id": 68343,
  "name": "STARLINK-37158",
  "history": [
    {
      "epoch": "2026-03-31T16:00:01.999584Z",
      "apogee_km": 321.210765271976,
      "perigee_km": 320.5515818836957,
      "latitude_deg": -41.59738727973505,
      "longitude_deg": 142.10059993506735,
      "height_km": 334.92534315286366,
      "semi_major_axis_km": 6699.018173577835,
      "eccentricity": 4.92e-05,
      "inclination_deg": 53.1593,
      "raan_deg": 252.5541,
      "arg_perigee_deg": 78.1598,
      "mean_anomaly_deg": 226.1343,
      "mean_motion_rev_day": 15.83383183
    }
  ]
}